[{"OBJECT_NAME":"SL-8 R/B","OBJECT_ID":"1979-089B","EPOCH":"2026-03-29T03:59:08.225952","MEAN_MOTION":14.42363023,"ECCENTRICITY":0.0016751,"INCLINATION":74.0687,"RA_OF_ASC_NODE":54.987,"ARG_OF_PERICENTER":225.1631,"MEAN_ANOMALY":134.8166,"EPHEMERIS_TYPE":0,"CLASSIFICATION_TYPE":"U","NORAD_CAT_ID":11574,"ELEMENT_SET_NO":999,"REV_AT_EPOCH":43891,"BSTAR":0.00013629,"MEAN_MOTION_DOT":4.25e-6,"MEAN_MOTION_DDOT":0},{"OBJECT_NAME":"SL-14 R/B","OBJECT_ID":"1980-005B","EPOCH":"2026-03-29T04:34:26.479200","MEAN_MOTION":14.90952549,"ECCENTRICITY":0.0017237,"INCLINATION":82.5112,"RA_OF_ASC_NODE":288.7337,"ARG_OF_PERICENTER":97.7593,"MEAN_ANOMALY":262.5583,"EPHEMERIS_TYPE":0,"CLASSIFICATION_TYPE":"U","NORAD_CAT_ID":11672,"ELEMENT_SET_NO":999,"REV_AT_EPOCH":47939,"BSTAR":7.1251e-5,"MEAN_MOTION_DOT":7.31e-6,"MEAN_MOTION_DDOT":0},{"OBJECT_NAME":"SL-8 R/B","OBJECT_ID":"1981-003B","EPOCH":"2026-03-28T22:28:21.196416","MEAN_MOTION":15.11815314,"ECCENTRICITY":0.0260896,"INCLINATION":82.9331,"RA_OF_ASC_NODE":272.2142,"ARG_OF_PERICENTER":111.6861,"MEAN_ANOMALY":251.237,"EPHEMERIS_TYPE":0,"CLASSIFICATION_TYPE":"U","NORAD_CAT_ID":12139,"ELEMENT_SET_NO":999,"REV_AT_EPOCH":31758,"BSTAR":0.00064649,"MEAN_MOTION_DOT":0.00025822,"MEAN_MOTION_DDOT":0},{"OBJECT_NAME":"SL-3 R/B","OBJECT_ID":"1981-046B","EPOCH":"2026-03-29T04:25:02.599104","MEAN_MOTION":15.42467616,"ECCENTRICITY":0.0018235,"INCLINATION":81.2281,"RA_OF_ASC_NODE":266.3226,"ARG_OF_PERICENTER":313.2555,"MEAN_ANOMALY":46.7165,"EPHEMERIS_TYPE":0,"CLASSIFICATION_TYPE":"U","NORAD_CAT_ID":12465,"ELEMENT_SET_NO":999,"REV_AT_EPOCH":44143,"BSTAR":0.00035831,"MEAN_MOTION_DOT":0.00015643,"MEAN_MOTION_DDOT":0},{"OBJECT_NAME":"SL-3 R/B","OBJECT_ID":"1981-103B","EPOCH":"2026-03-29T05:43:57.157536","MEAN_MOTION":15.21604875,"ECCENTRICITY":0.001273,"INCLINATION":81.1606,"RA_OF_ASC_NODE":190.4995,"ARG_OF_PERICENTER":216.3131,"MEAN_ANOMALY":143.7238,"EPHEMERIS_TYPE":0,"CLASSIFICATION_TYPE":"U","NORAD_CAT_ID":12904,"ELEMENT_SET_NO":999,"REV_AT_EPOCH":97620,"BSTAR":0.0003297,"MEAN_MOTION_DOT":7.481e-5,"MEAN_MOTION_DDOT":0},{"OBJECT_NAME":"SL-3 R/B","OBJECT_ID":"1982-013B","EPOCH":"2026-03-29T04:09:37.180800","MEAN_MOTION":15.22188935,"ECCENTRICITY":0.0023515,"INCLINATION":81.1737,"RA_OF_ASC_NODE":137.9331,"ARG_OF_PERICENTER":113.4644,"MEAN_ANOMALY":246.9063,"EPHEMERIS_TYPE":0,"CLASSIFICATION_TYPE":"U","NORAD_CAT_ID":13068,"ELEMENT_SET_NO":999,"REV_AT_EPOCH":40731,"BSTAR":0.00019984,"MEAN_MOTION_DOT":4.648e-5,"MEAN_MOTION_DDOT":0},{"OBJECT_NAME":"SL-3 R/B","OBJECT_ID":"1982-039B","EPOCH":"2026-03-29T03:17:26.514816","MEAN_MOTION":15.10189093,"ECCENTRICITY":0.0028589,"INCLINATION":81.1567,"RA_OF_ASC_NODE":193.5381,"ARG_OF_PERICENTER":260.1229,"MEAN_ANOMALY":99.6768,"EPHEMERIS_TYPE":0,"CLASSIFICATION_TYPE":"U","NORAD_CAT_ID":13154,"ELEMENT_SET_NO":999,"REV_AT_EPOCH":38457,"BSTAR":0.00022114,"MEAN_MOTION_DOT":3.668e-5,"MEAN_MOTION_DDOT":0},{"OBJECT_NAME":"SL-3 R/B","OBJECT_ID":"1982-079B","EPOCH":"2026-03-29T05:17:57.699744","MEAN_MOTION":15.25059851,"ECCENTRICITY":0.0025471,"INCLINATION":81.1486,"RA_OF_ASC_NODE":170.0162,"ARG_OF_PERICENTER":100.5874,"MEAN_ANOMALY":259.823,"EPHEMERIS_TYPE":0,"CLASSIFICATION_TYPE":"U","NORAD_CAT_ID":13403,"ELEMENT_SET_NO":999,"REV_AT_EPOCH":38067,"BSTAR":0.00030501,"MEAN_MOTION_DOT":7.721e-5,"MEAN_MOTION_DDOT":0},{"OBJECT_NAME":"SL-14 R/B","OBJECT_ID":"1982-092B","EPOCH":"2026-03-29T03:53:34.733184","MEAN_MOTION":14.86683533,"ECCENTRICITY":0.0019058,"INCLINATION":82.5658,"RA_OF_ASC_NODE":123.1831,"ARG_OF_PERICENTER":233.9484,"MEAN_ANOMALY":186.9651,"EPHEMERIS_TYPE":0,"CLASSIFICATION_TYPE":"U","NORAD_CAT_ID":13553,"ELEMENT_SET_NO":999,"REV_AT_EPOCH":33182,"BSTAR":4.8318e-5,"MEAN_MOTION_DOT":4.55e-6,"MEAN_MOTION_DDOT":0},{"OBJECT_NAME":"SL-3 R/B","OBJECT_ID":"1983-010B","EPOCH":"2026-03-29T04:03:54.103680","MEAN_MOTION":15.47008372,"ECCENTRICITY":0.0015968,"INCLINATION":81.1056,"RA_OF_ASC_NODE":338.3555,"ARG_OF_PERICENTER":344.6221,"MEAN_ANOMALY":15.4536,"EPHEMERIS_TYPE":0,"CLASSIFICATION_TYPE":"U","NORAD_CAT_ID":13819,"ELEMENT_SET_NO":999,"REV_AT_EPOCH":36095,"BSTAR":0.00039824,"MEAN_MOTION_DOT":0.00020259,"MEAN_MOTION_DDOT":0},{"OBJECT_NAME":"SL-3 R/B","OBJECT_ID":"1983-075B","EPOCH":"2026-03-29T01:37:01.104960","MEAN_MOTION":15.38867268,"ECCENTRICITY":0.002228,"INCLINATION":97.6138,"RA_OF_ASC_NODE":93.3852,"ARG_OF_PERICENTER":155.6415,"MEAN_ANOMALY":204.5888,"EPHEMERIS_TYPE":0,"CLASSIFICATION_TYPE":"U","NORAD_CAT_ID":14208,"ELEMENT_SET_NO":999,"REV_AT_EPOCH":33313,"BSTAR":0.00033471,"MEAN_MOTION_DOT":0.00012896,"MEAN_MOTION_DDOT":0},{"OBJECT_NAME":"COSMOS 1536","OBJECT_ID":"1984-013A","EPOCH":"2026-03-29T02:09:26.159040","MEAN_MOTION":15.24082708,"ECCENTRICITY":0.0013339,"INCLINATION":82.5412,"RA_OF_ASC_NODE":88.5564,"ARG_OF_PERICENTER":206.7011,"MEAN_ANOMALY":153.3541,"EPHEMERIS_TYPE":0,"CLASSIFICATION_TYPE":"U","NORAD_CAT_ID":14699,"ELEMENT_SET_NO":999,"REV_AT_EPOCH":27557,"BSTAR":0.00032176,"MEAN_MOTION_DOT":7.862e-5,"MEAN_MOTION_DDOT":0},{"OBJECT_NAME":"SL-14 R/B","OBJECT_ID":"1984-027B","EPOCH":"2026-03-29T02:04:07.267008","MEAN_MOTION":14.85996662,"ECCENTRICITY":0.0016475,"INCLINATION":82.5418,"RA_OF_ASC_NODE":226.8195,"ARG_OF_PERICENTER":269.1858,"MEAN_ANOMALY":90.7471,"EPHEMERIS_TYPE":0,"CLASSIFICATION_TYPE":"U","NORAD_CAT_ID":14820,"ELEMENT_SET_NO":999,"REV_AT_EPOCH":25051,"BSTAR":6.5231e-5,"MEAN_MOTION_DOT":5.95e-6,"MEAN_MOTION_DDOT":0},{"OBJECT_NAME":"SL-8 R/B","OBJECT_ID":"1985-006B","EPOCH":"2026-03-29T03:52:37.792128","MEAN_MOTION":14.37797051,"ECCENTRICITY":0.0017661,"INCLINATION":74.0452,"RA_OF_ASC_NODE":225.3159,"ARG_OF_PERICENTER":137.5023,"MEAN_ANOMALY":34.3406,"EPHEMERIS_TYPE":0,"CLASSIFICATION_TYPE":"U","NORAD_CAT_ID":15483,"ELEMENT_SET_NO":999,"REV_AT_EPOCH":15682,"BSTAR":0.00011689,"MEAN_MOTION_DOT":3.27e-6,"MEAN_MOTION_DDOT":0},{"OBJECT_NAME":"SL-12 R/B(2)","OBJECT_ID":"1985-042D","EPOCH":"2026-03-29T04:28:21.626688","MEAN_MOTION":14.21988013,"ECCENTRICITY":0.0032838,"INCLINATION":71.1087,"RA_OF_ASC_NODE":46.5348,"ARG_OF_PERICENTER":95.8339,"MEAN_ANOMALY":358.306,"EPHEMERIS_TYPE":0,"CLASSIFICATION_TYPE":"U","NORAD_CAT_ID":15772,"ELEMENT_SET_NO":999,"REV_AT_EPOCH":11716,"BSTAR":4.6785e-5,"MEAN_MOTION_DOT":5.7e-7,"MEAN_MOTION_DDOT":0},{"OBJECT_NAME":"SL-14 R/B","OBJECT_ID":"1985-069B","EPOCH":"2026-03-29T04:47:34.562976","MEAN_MOTION":14.86454499,"ECCENTRICITY":0.0020045,"INCLINATION":82.5305,"RA_OF_ASC_NODE":6.5924,"ARG_OF_PERICENTER":124.9836,"MEAN_ANOMALY":235.3266,"EPHEMERIS_TYPE":0,"CLASSIFICATION_TYPE":"U","NORAD_CAT_ID":15945,"ELEMENT_SET_NO":999,"REV_AT_EPOCH":17573,"BSTAR":6.6745e-5,"MEAN_MOTION_DOT":6.16e-6,"MEAN_MOTION_DDOT":0},{"OBJECT_NAME":"SL-16 R/B","OBJECT_ID":"1985-097B","EPOCH":"2026-03-29T04:40:58.474272","MEAN_MOTION":14.16603638,"ECCENTRICITY":0.0009446,"INCLINATION":71.0007,"RA_OF_ASC_NODE":99.4876,"ARG_OF_PERICENTER":237.0267,"MEAN_ANOMALY":193.6624,"EPHEMERIS_TYPE":0,"CLASSIFICATION_TYPE":"U","NORAD_CAT_ID":16182,"ELEMENT_SET_NO":999,"REV_AT_EPOCH":8999,"BSTAR":-1.4402e-5,"MEAN_MOTION_DOT":-7.7e-7,"MEAN_MOTION_DDOT":0}]
